GLOBALSTAR M063         
1 26081U 00008A   24178.15351749 -.00000054  00000+0  41612-3 0  9998
2 26081  51.9970 329.2260 0004203   1.0552 169.7313 11.86156388115325
GLOBALSTAR M062         
1 26082U 00008B   24177.87034819 -.00000052  00000+0  33133-3 0  9990
2 26082  51.9860  63.5799 0007788  70.4197   9.8308 12.43439048452294
GLOBALSTAR M060         
1 26083U 00008C   24178.15751042  .00000031  00000+0  12112-2 0  9996
2 26083  52.0040 332.3757 0004160 121.5080  49.5582 12.17636659109177
GLOBALSTAR M064         
1 26084U 00008D   24177.98000673 -.00000066  00000+0  25128-3 0  9995
2 26084  52.0040  72.7099 0002017  77.1722 282.9336 11.88519987124741
GLOBALSTAR M065         
1 31571U 07020A   24178.46187926 -.00000060  00000+0  24619-3 0  9992
2 31571  51.9877 228.9509 0009895 238.3973 225.0192 12.61972584788499
GLOBALSTAR M069         
1 31573U 07020C   24178.21121420 -.00000096  00000+0  43197-4 0  9996
2 31573  51.9922 185.5268 0000551 276.1383 163.7563 12.62276134789598
GLOBALSTAR M072         
1 31574U 07020D   24178.44395697 -.00000081  00000+0  12668-3 0  9993
2 31574  52.0090 280.7655 0000779 156.0492 281.0460 12.62258814787890
GLOBALSTAR M071         
1 31576U 07020F   24178.23809795 -.00000115  00000+0 -64902-4 0  9999
2 31576  52.0037 190.6194 0000217 343.3529  97.4566 12.62268928450787
